{
"type": "FeatureCollection",
"name": "R-15-D",
"crs": { "type": "name", "properties": { "name": "urn:ogc:def:crs:OGC:1.3:CRS84" } },
"features": [
{ "type": "Feature", "properties": { "level_0": 5, "level_1": 0, "Organisati": "AECOM-Hatfield", "AREA_sqkm": 308983853.20009154, "AOI_number": "R-15-C" }, "geometry": { "type": "MultiPolygon", "coordinates": [ [ [ [ -73.221670362149823, 45.820201505853419 ], [ -73.255358153057131, 45.794841372412655 ], [ -73.270533326587099, 45.784685848737887 ], [ -73.279638320388301, 45.777667752003701 ], [ -73.281080880665698, 45.776662939621602 ], [ -73.281971873872294, 45.776225285902271 ], [ -73.282081726533121, 45.776128481622294 ], [ -73.282812536417808, 45.775106332823086 ], [ -73.291099630381666, 45.779566503368727 ], [ -73.291516251738443, 45.779120232890087 ], [ -73.291837874707397, 45.778875578062838 ], [ -73.291979653156432, 45.778723052034842 ], [ -73.294279679673934, 45.777233042119072 ], [ -73.294939479427029, 45.776557872831944 ], [ -73.297576409002971, 45.774733496864862 ], [ -73.298318553557579, 45.774411833034499 ], [ -73.29837556852975, 45.774399660385747 ], [ -73.298504056426253, 45.774395541124683 ], [ -73.300859039058821, 45.773450572957074 ], [ -73.301104590110896, 45.773090113469877 ], [ -73.301414859836157, 45.77287204074284 ], [ -73.301817436642537, 45.772716279451544 ], [ -73.301938516841687, 45.772645593433936 ], [ -73.302827708382338, 45.772287143516266 ], [ -73.305173775199663, 45.769901689136283 ], [ -73.307348084856343, 45.766427153529236 ], [ -73.311132566680811, 45.762698584650515 ], [ -73.311157583823771, 45.762681542129172 ], [ -73.319250370491801, 45.758739799465019 ], [ -73.329103458106843, 45.754853634213489 ], [ -73.329105303999327, 45.754673020341684 ], [ -73.329130253226026, 45.754569860004345 ], [ -73.329236340041888, 45.754377593702024 ], [ -73.329335113759313, 45.754271241581662 ], [ -73.329398265210585, 45.754170124893328 ], [ -73.329339234548286, 45.75408026185567 ], [ -73.329486194941083, 45.753492583614388 ], [ -73.329603158817918, 45.7534109295935 ], [ -73.330081976523445, 45.753272256444426 ], [ -73.330249464792516, 45.753272256498761 ], [ -73.330870419964185, 45.753520705219508 ], [ -73.331171978545029, 45.753937390480964 ], [ -73.331206447425672, 45.754020330266442 ], [ -73.340363859962707, 45.750391513059654 ], [ -73.345719655865523, 45.744328638924664 ], [ -73.346231186788131, 45.743927685145103 ], [ -73.346775141606216, 45.74319786446096 ], [ -73.346973067582724, 45.743031903961977 ], [ -73.348140266757511, 45.742360085173246 ], [ -73.348231979805576, 45.742320830382546 ], [ -73.348232596423713, 45.742320367523696 ], [ -73.34870836736188, 45.741679321356514 ], [ -73.348982798601057, 45.741475747803442 ], [ -73.34906841295782, 45.741430814201607 ], [ -73.349613171970802, 45.740919352617979 ], [ -73.351192460620965, 45.739933911809494 ], [ -73.371291011406697, 45.735443713682606 ], [ -73.392102336339903, 45.717235471506882 ], [ -73.392321683565129, 45.717204041229266 ], [ -73.393358447085859, 45.717612551206642 ], [ -73.393619570691669, 45.717286476699371 ], [ -73.393690832130758, 45.717148205541527 ], [ -73.394608917059273, 45.716218661991356 ], [ -73.394756475302586, 45.716049719630192 ], [ -73.394919870999232, 45.715928329542486 ], [ -73.395234274523617, 45.715595235994478 ], [ -73.395909961274995, 45.715182169231049 ], [ -73.395919085984787, 45.715010987784247 ], [ -73.396121714517491, 45.714578673161625 ], [ -73.397004007763016, 45.713554617084974 ], [ -73.397394440642032, 45.713208816362204 ], [ -73.398334981540103, 45.712486870150144 ], [ -73.398506705731506, 45.71240014534321 ], [ -73.399500769386009, 45.711642559423737 ], [ -73.400071541708797, 45.711277322657963 ], [ -73.400958491273556, 45.710498909204482 ], [ -73.401188698486052, 45.710394490709355 ], [ -73.40155064104286, 45.710153116899249 ], [ -73.402178327373747, 45.70952875112205 ], [ -73.406321687931808, 45.702184623447749 ], [ -73.492702989104515, 45.742067467203199 ], [ -73.488840995611994, 45.749552906038211 ], [ -73.48867619639438, 45.749709368579417 ], [ -73.487246021796963, 45.752565438839483 ], [ -73.486771312218863, 45.753017303230443 ], [ -73.48670393573083, 45.753056162273772 ], [ -73.485764502516218, 45.754458480513378 ], [ -73.485543519592099, 45.754621135618741 ], [ -73.483823213002097, 45.755338734360784 ], [ -73.483784574009221, 45.755382073835406 ], [ -73.482912931054798, 45.755878253397121 ], [ -73.482715052775347, 45.756222365931905 ], [ -73.481904016269539, 45.756808855243506 ], [ -73.481778975674672, 45.757074385369123 ], [ -73.480410077539048, 45.757577678637389 ], [ -73.480522944420088, 45.757623007807439 ], [ -73.480584820209032, 45.757792919270408 ], [ -73.45396943056511, 45.787664298337099 ], [ -73.443022821215862, 45.795367159988572 ], [ -73.441535836184983, 45.796856303135712 ], [ -73.439563246884887, 45.799967277381576 ], [ -73.43947549643336, 45.800055699032981 ], [ -73.439285118321493, 45.800336761695142 ], [ -73.439260475659196, 45.800488127370635 ], [ -73.438768024425357, 45.801403411035217 ], [ -73.438685261785722, 45.801476332397179 ], [ -73.438637517500695, 45.801612343845242 ], [ -73.438490757703988, 45.801813173081477 ], [ -73.43819254963195, 45.80205908965241 ], [ -73.438045185037794, 45.802254074624578 ], [ -73.437959786474323, 45.802419864505907 ], [ -73.437926609597454, 45.802523609532834 ], [ -73.437760003294628, 45.802744367247037 ], [ -73.437694361963182, 45.802796542589249 ], [ -73.43478969798538, 45.807286377539931 ], [ -73.434757846747658, 45.807315551723548 ], [ -73.42857619319247, 45.810893820346088 ], [ -73.428344525130584, 45.811095899034541 ], [ -73.427965549054093, 45.81124720822632 ], [ -73.426877762388727, 45.811876721947804 ], [ -73.426572893214114, 45.812131706308108 ], [ -73.426056541581843, 45.812355807619817 ], [ -73.42577445186204, 45.812571733169513 ], [ -73.421780367690062, 45.814834882728775 ], [ -73.42160960396734, 45.81499946941905 ], [ -73.421305668995302, 45.815204033296865 ], [ -73.421219437537843, 45.815300454923253 ], [ -73.420570943236967, 45.815778681733818 ], [ -73.420409189745158, 45.81585450099508 ], [ -73.420323844224612, 45.816009276499123 ], [ -73.420172066845041, 45.816191426826769 ], [ -73.419542580577101, 45.816557698402015 ], [ -73.419470082078874, 45.816650216251546 ], [ -73.419479746497572, 45.816935310018572 ], [ -73.419314560643485, 45.817399134926752 ], [ -73.41887834696422, 45.818042488933592 ], [ -73.418865778565547, 45.818068260739324 ], [ -73.418714054913679, 45.818250369334365 ], [ -73.418591250908378, 45.818337312586202 ], [ -73.418579611112051, 45.818413639466293 ], [ -73.417979160557223, 45.819693581905142 ], [ -73.417669550307863, 45.820193223382688 ], [ -73.417595004708232, 45.820397340951956 ], [ -73.417407653639884, 45.820700273031477 ], [ -73.417124503819863, 45.821033297688317 ], [ -73.41697843195719, 45.821249339571274 ], [ -73.416950382076166, 45.821449474351894 ], [ -73.416823524379623, 45.821720949968494 ], [ -73.416358624103353, 45.822204711902941 ], [ -73.416336643968904, 45.822255406896126 ], [ -73.416189930295445, 45.822462886103601 ], [ -73.416148446858202, 45.822600519416092 ], [ -73.416022303425549, 45.822786527743709 ], [ -73.415965813168356, 45.822836620698958 ], [ -73.415819479450761, 45.82302564877925 ], [ -73.415800104128934, 45.823085884568066 ], [ -73.415688145442317, 45.823258275241365 ], [ -73.415575235036499, 45.823611587086404 ], [ -73.415062286036417, 45.824131994896113 ], [ -73.414999316554557, 45.824263045163576 ], [ -73.414075250391377, 45.825397502785769 ], [ -73.413998893060111, 45.82561222375562 ], [ -73.413847247731667, 45.825794259296693 ], [ -73.413704552268669, 45.825894033674544 ], [ -73.41355938371197, 45.825963602187784 ], [ -73.411586870627971, 45.829884640206636 ], [ -73.404891782979234, 45.838588262408315 ], [ -73.404855905879757, 45.838617168016654 ], [ -73.403519129842508, 45.839283716484132 ], [ -73.403312292732139, 45.839459406585725 ], [ -73.40316780656147, 45.839529022846193 ], [ -73.40288084876623, 45.839601620703782 ], [ -73.399868510944998, 45.841181163073784 ], [ -73.39976917574559, 45.841290717384325 ], [ -73.399618034886331, 45.841405226451229 ], [ -73.399394479146764, 45.841517237768286 ], [ -73.398908702129873, 45.841677641255082 ], [ -73.398580442870028, 45.841853908629083 ], [ -73.397968051571723, 45.84204843678031 ], [ -73.397423536333932, 45.842337164813806 ], [ -73.392164961489314, 45.844937539636319 ], [ -73.387021826644016, 45.846256980292033 ], [ -73.386411625661296, 45.8464375728581 ], [ -73.386315506465834, 45.84648103185885 ], [ -73.377277752511631, 45.848066878946931 ], [ -73.377208157018117, 45.848105075385554 ], [ -73.376931442484292, 45.848194997876313 ], [ -73.376725810897611, 45.84821946497231 ], [ -73.376570740791777, 45.84825749809869 ], [ -73.376276228937954, 45.84829373803047 ], [ -73.371330552876486, 45.849681301238341 ], [ -73.371155631023427, 45.849759089451481 ], [ -73.370910997245574, 45.849819579787777 ], [ -73.370522249389083, 45.850019064323561 ], [ -73.370427233658745, 45.850051175255778 ], [ -73.357559168889509, 45.860349951709921 ], [ -73.357390223013141, 45.860569707252253 ], [ -73.35738239590161, 45.86058768163074 ], [ -73.357170330096807, 45.860877411620002 ], [ -73.356887960633983, 45.861118727141708 ], [ -73.356550419039436, 45.861448018533459 ], [ -73.3536723269183, 45.864442647309112 ], [ -73.352665019109438, 45.865159116056525 ], [ -73.352651769546654, 45.865180984753707 ], [ -73.347289147030807, 45.870408553764236 ], [ -73.346043535630031, 45.871106504587523 ], [ -73.340704693322124, 45.87544947370349 ], [ -73.340673157902629, 45.875524397246018 ], [ -73.340475902110128, 45.875794124615894 ], [ -73.340373940449325, 45.875879438902444 ], [ -73.339836581605539, 45.876154403915301 ], [ -73.339537602708731, 45.876369111001182 ], [ -73.33953189517338, 45.876375052940432 ], [ -73.339438601899516, 45.876617854234858 ], [ -73.33932471882909, 45.876785274410523 ], [ -73.338760972850224, 45.877287975602115 ], [ -73.338648442539892, 45.877353465438212 ], [ -73.338655109051103, 45.87752198986847 ], [ -73.338597683581455, 45.877705019799556 ], [ -73.338337397669406, 45.877964390399306 ], [ -73.33803995935817, 45.878085259185632 ], [ -73.337733492144494, 45.878123185589935 ], [ -73.337589254690556, 45.878115347052905 ], [ -73.337386458619434, 45.878229075837979 ], [ -73.336612947060658, 45.878813174793471 ], [ -73.336560013635051, 45.878872739029582 ], [ -73.336377420601053, 45.878970856618608 ], [ -73.336253445750017, 45.879108936762925 ], [ -73.336088457612519, 45.879235423626007 ], [ -73.335869850168407, 45.879352509755769 ], [ -73.319009846116685, 45.894606452244027 ], [ -73.31886744234717, 45.894824175965752 ], [ -73.318729107009887, 45.894957826242354 ], [ -73.318630539512114, 45.895198100308555 ], [ -73.31852244309033, 45.895342699605479 ], [ -73.318450563614888, 45.895404791664006 ], [ -73.318403793832147, 45.895533357308523 ], [ -73.318302475729851, 45.895678042288345 ], [ -73.31810184079211, 45.89587105230882 ], [ -73.318024450806661, 45.896106484787886 ], [ -73.317584171855415, 45.896819280193789 ], [ -73.317184670710176, 45.897225318004615 ], [ -73.317081534989654, 45.897382450274407 ], [ -73.314373787911279, 45.899586421211495 ], [ -73.31394944285357, 45.899783472515132 ], [ -73.313314533348859, 45.900424733076242 ], [ -73.313255242919439, 45.900525771501002 ], [ -73.313135306215429, 45.900654354575501 ], [ -73.312918901817199, 45.900792982709618 ], [ -73.312793375427916, 45.900908883649983 ], [ -73.312613528853078, 45.901020954593086 ], [ -73.310544211204871, 45.902913829965406 ], [ -73.310169161265236, 45.903127107648679 ], [ -73.310002205775191, 45.903272198503544 ], [ -73.309355239847605, 45.904403720068665 ], [ -73.309063336676019, 45.905490656533892 ], [ -73.30830837760108, 45.907458672276249 ], [ -73.308097845117175, 45.907745841161322 ], [ -73.307994795534256, 45.907840488368549 ], [ -73.307952456887165, 45.90789758047692 ], [ -73.307048710013703, 45.9098344619429 ], [ -73.306979805365501, 45.910186054916593 ], [ -73.304420798470474, 45.914015004650821 ], [ -73.296692930319779, 45.922677360734305 ], [ -73.296515631395152, 45.9231410981549 ], [ -73.295636988165967, 45.924227315588425 ], [ -73.289938902003513, 45.932820807996976 ], [ -73.289805678032522, 45.933252270547811 ], [ -73.288039793650043, 45.935901751572452 ], [ -73.287851278574834, 45.936385410986702 ], [ -73.287685938618424, 45.936502872301936 ], [ -73.287361697350704, 45.937019347105959 ], [ -73.287279077655441, 45.937103616507784 ], [ -73.287209601157528, 45.937268104533011 ], [ -73.28704244145618, 45.937510938748815 ], [ -73.284763252936912, 45.941708533129308 ], [ -73.284494950329545, 45.941996000373372 ], [ -73.284489333483165, 45.942287714232208 ], [ -73.284439870552276, 45.942444627813579 ], [ -73.284400576423863, 45.942511307308791 ], [ -73.284397257990634, 45.942692259152345 ], [ -73.284348277002692, 45.942848429437539 ], [ -73.284217457043354, 45.94303128672226 ], [ -73.284069663389602, 45.943154190272381 ], [ -73.283861104736118, 45.943262650146586 ], [ -73.283616184285151, 45.943446764300838 ], [ -73.283412381894209, 45.943841182210193 ], [ -73.2799636622441, 45.948885719437577 ], [ -73.279855702134725, 45.94897979709458 ], [ -73.279784194778401, 45.949147387554099 ], [ -73.278459643220387, 45.950491223690278 ], [ -73.278423021428111, 45.950575593280526 ], [ -73.278318740607858, 45.950716287978146 ], [ -73.278125291582626, 45.950884334395802 ], [ -73.277559730826638, 45.95160823822161 ], [ -73.27729664613581, 45.951802852943047 ], [ -73.277057376266015, 45.951953208593366 ], [ -73.276813138451203, 45.952214102431491 ], [ -73.276114660778902, 45.952670969696079 ], [ -73.27560147424748, 45.953087149152324 ], [ -73.275582711625987, 45.953107154027435 ], [ -73.275384420234673, 45.953244681946636 ], [ -73.275152689010753, 45.953345059046754 ], [ -73.27495320643277, 45.953550944313726 ], [ -73.274842834455924, 45.953628588080264 ], [ -73.274429061184392, 45.953864057327564 ], [ -73.274303348832845, 45.953892454565143 ], [ -73.167546784723925, 45.926880999106132 ], [ -73.167398649745294, 45.926753212100024 ], [ -73.167430357101125, 45.926075845193253 ], [ -73.169836623754847, 45.913135299391122 ], [ -73.169519066637349, 45.911710432732235 ], [ -73.169548339041654, 45.91161526790961 ], [ -73.169797653907651, 45.91133361694299 ], [ -73.170219253454405, 45.910545772272677 ], [ -73.170316717776629, 45.910431968262614 ], [ -73.17071667102401, 45.909508007146385 ], [ -73.170720109008769, 45.909394858686248 ], [ -73.170759817269854, 45.909242834755879 ], [ -73.170836075334435, 45.909112382345356 ], [ -73.170932542232109, 45.908717404911236 ], [ -73.170929189172014, 45.908694367495414 ], [ -73.170668970845696, 45.908133106442584 ], [ -73.170336696060275, 45.9063360600544 ], [ -73.170379860525088, 45.905719121725653 ], [ -73.170868200421012, 45.904535903373727 ], [ -73.170717996668785, 45.90423857913742 ], [ -73.17061123374144, 45.90333756927501 ], [ -73.170764869998294, 45.902777862533519 ], [ -73.170723171396588, 45.902542278262203 ], [ -73.17053934858545, 45.9021256480952 ], [ -73.170279883867252, 45.900847495751151 ], [ -73.170185341477023, 45.900652413127105 ], [ -73.170056931984007, 45.900095532427791 ], [ -73.170086507366648, 45.899999971524082 ], [ -73.170382162897312, 45.899681710313622 ], [ -73.169375130431362, 45.897186916399022 ], [ -73.169358256197611, 45.896886256782835 ], [ -73.169215754096612, 45.896659955240551 ], [ -73.169090886808206, 45.895597089418231 ], [ -73.169277098087434, 45.894636674514672 ], [ -73.169335582658789, 45.894509438812456 ], [ -73.169265948395505, 45.894213261388934 ], [ -73.169266541725094, 45.894067570395833 ], [ -73.169380538067315, 45.893816684045916 ], [ -73.169597717936611, 45.89358651698285 ], [ -73.169293950463498, 45.892533456030449 ], [ -73.169266238885498, 45.89162219723837 ], [ -73.169713213080712, 45.890168046732406 ], [ -73.169673014588625, 45.890085996277826 ], [ -73.169637440061308, 45.889938531580285 ], [ -73.169733625603186, 45.889610546660563 ], [ -73.169467257407192, 45.887264720926993 ], [ -73.169555201518136, 45.886547000710991 ], [ -73.169387362197384, 45.885845725764689 ], [ -73.169444357952031, 45.884526659712144 ], [ -73.170067075983823, 45.883311188885948 ], [ -73.169992429292066, 45.883022816396 ], [ -73.17013089737911, 45.882488081576874 ], [ -73.170289590005353, 45.882241465596145 ], [ -73.170446111534588, 45.882075633892576 ], [ -73.170372031514844, 45.88183261751562 ], [ -73.170390395822935, 45.881525400433418 ], [ -73.170440984786921, 45.881375759881749 ], [ -73.170534820408051, 45.881240303950399 ], [ -73.170663342524634, 45.881116732732963 ], [ -73.17071605125706, 45.880745821084531 ], [ -73.17076183408021, 45.880657588396907 ], [ -73.171155383572398, 45.880178122384251 ], [ -73.172466301658147, 45.87627092807125 ], [ -73.172495578174349, 45.876234978216601 ], [ -73.172536624999083, 45.876204605042318 ], [ -73.172576683736409, 45.876088316875318 ], [ -73.172601985381121, 45.876053681821269 ], [ -73.174019107624673, 45.874907424319034 ], [ -73.174023226188737, 45.874873476228466 ], [ -73.174039941114899, 45.874836552582842 ], [ -73.176378199208457, 45.872388557479141 ], [ -73.178003152810746, 45.871289169098318 ], [ -73.179286098468936, 45.869791673734554 ], [ -73.179288895974821, 45.869727567009406 ], [ -73.179757728521395, 45.86839966620304 ], [ -73.179828869201003, 45.868287619017948 ], [ -73.179841060085991, 45.86785395761737 ], [ -73.179950527105731, 45.867618066999128 ], [ -73.180015158712038, 45.867544811787958 ], [ -73.180022699891197, 45.867529189082674 ], [ -73.180047855022195, 45.866939450479563 ], [ -73.180387000989384, 45.866291200154237 ], [ -73.180838921524057, 45.865810904654843 ], [ -73.180925717922761, 45.865552868901247 ], [ -73.181784885503589, 45.864426298963892 ], [ -73.182171349984145, 45.864072309393542 ], [ -73.182258899190899, 45.864028142806426 ], [ -73.182331709067682, 45.863974973553333 ], [ -73.182582964202922, 45.863668981622261 ], [ -73.182881186731436, 45.86346182976213 ], [ -73.183008243350471, 45.86339905613648 ], [ -73.196294824581202, 45.845875193794207 ], [ -73.197130825144512, 45.845032109872832 ], [ -73.197517493769283, 45.843416868291534 ], [ -73.197547101125565, 45.843372694479342 ], [ -73.198603065583796, 45.84251431542522 ], [ -73.199457548458909, 45.841235173003049 ], [ -73.200269297651886, 45.840449023079564 ], [ -73.200587525022428, 45.838798031083478 ], [ -73.201932094623899, 45.837736679249574 ], [ -73.202909788649023, 45.837428145226667 ], [ -73.202925273742352, 45.837219115051106 ], [ -73.203024013159478, 45.836979145322701 ], [ -73.203124196224593, 45.836842659807367 ], [ -73.20380806915837, 45.836237517687046 ], [ -73.203985660844154, 45.835944330406896 ], [ -73.204005110835496, 45.835868664284611 ], [ -73.203991046592449, 45.835803969936919 ], [ -73.204143320969038, 45.835406955987288 ], [ -73.204510102324093, 45.835131761214413 ], [ -73.204565802118381, 45.83507018103554 ], [ -73.204715766241918, 45.834956429690799 ], [ -73.204869911496246, 45.834872073439648 ], [ -73.205437619083042, 45.834123014633384 ], [ -73.205739591010115, 45.833941950397815 ], [ -73.206094405816074, 45.833539964282821 ], [ -73.206114867016183, 45.833479456180534 ], [ -73.20628516780954, 45.833257157860665 ], [ -73.206342320216521, 45.833214690636559 ], [ -73.206683482827586, 45.832845425761846 ], [ -73.206713271904732, 45.832771615763562 ], [ -73.206902266367123, 45.832557189744549 ], [ -73.207281867478514, 45.832331156155632 ], [ -73.207590528437663, 45.83207057668573 ], [ -73.207818881281895, 45.831950764627358 ], [ -73.208264432827875, 45.831598554406575 ], [ -73.208325217043537, 45.831511069588785 ], [ -73.208520750775605, 45.831347479728919 ], [ -73.208623786903061, 45.831292836138921 ], [ -73.208821425645056, 45.831094851566583 ], [ -73.208936114174008, 45.831014618817413 ], [ -73.209132221252275, 45.83091806128548 ], [ -73.20929573490163, 45.830866292168778 ], [ -73.209432200704114, 45.830685411284428 ], [ -73.209454822817577, 45.830633974438037 ], [ -73.209700727095125, 45.83038396118279 ], [ -73.209885431538098, 45.830279453208362 ], [ -73.210079475921006, 45.830104305066598 ], [ -73.21123024171645, 45.829455413778668 ], [ -73.211428882722771, 45.829231901559226 ], [ -73.21163203235551, 45.829088055265878 ], [ -73.212019611970319, 45.828944764292046 ], [ -73.212152610612677, 45.828918955325648 ], [ -73.213873853355622, 45.827804811289987 ], [ -73.214042039564575, 45.827789408962403 ], [ -73.214258226256675, 45.827797476335931 ], [ -73.214427484401867, 45.827826394962401 ], [ -73.214893120677672, 45.827193851751268 ], [ -73.215104861162999, 45.827047635673374 ], [ -73.215313980204073, 45.826961669074933 ], [ -73.21539914624519, 45.826820936958974 ], [ -73.215536856113928, 45.826683020051206 ], [ -73.215718812261954, 45.826556344678664 ], [ -73.216830904718307, 45.826160664072233 ], [ -73.218929158187748, 45.824981321485836 ], [ -73.219276317855602, 45.824503987209589 ], [ -73.21939325273209, 45.82390885307133 ], [ -73.219359855344294, 45.823336917221233 ], [ -73.219384859179726, 45.823234156067848 ], [ -73.219806061406985, 45.822488625164354 ], [ -73.219865805777744, 45.822236730262532 ], [ -73.219945857592165, 45.822079649151604 ], [ -73.220169165053235, 45.821834472934121 ], [ -73.220317684149592, 45.821731571369867 ], [ -73.22036990421347, 45.821526141063075 ], [ -73.220463131051886, 45.821381434416885 ], [ -73.220557912622027, 45.821286443527896 ], [ -73.220713802188655, 45.821177883350195 ], [ -73.22093067748348, 45.821070036768212 ], [ -73.220936111071779, 45.821061201377667 ], [ -73.220963763163226, 45.820938760859029 ], [ -73.221153065007698, 45.820657884169513 ], [ -73.221336187115909, 45.820526873906424 ], [ -73.221476316940965, 45.820370646129255 ], [ -73.221665069021029, 45.820239984545815 ], [ -73.221670362149823, 45.820201505853419 ] ] ] ] } }
]
}
